IRIDIUM 8 [+]           
1 24792U 97020A   14342.10614931  .00000092  00000-0  25727-4 0   923
2 24792  86.3956 344.1217 0002169 107.2763 252.8670 14.34214171921032
IRIDIUM 7 [+]           
1 24793U 97020B   14342.17868647  .00000157  00000-0  49142-4 0   857
2 24793  86.3958 344.3227 0002197 107.0556 300.0915 14.34214479921047
IRIDIUM 6 [+]           
1 24794U 97020C   14342.30272804  .00000221  00000-0  71715-4 0  8959
2 24794  86.3957 344.2213 0002323 109.1840 250.9607 14.34219899921065
IRIDIUM 5 [+]           
1 24795U 97020D   14342.08712303  .00000209  00000-0  67495-4 0  3083
2 24795  86.3954 344.3928 0002293 101.4169 258.7284 14.34213204921119
IRIDIUM 4 [-]           
1 24796U 97020E   14342.11950912  .00000379  00000-0  12683-3 0  1150
2 24796  86.3952 343.8107 0002144 108.6663 322.4642 14.34784784921072
IRIDIUM 914 [-]         
1 24836U 97030A   14342.18595116  .00000331  00000-0  10203-3 0  6524
2 24836  86.3932   3.0151 0001208 155.8794 247.0653 14.38386936916392
IRIDIUM 12 [+]          
1 24837U 97030B   14342.18551880  .00000329  00000-0  11025-3 0  1003
2 24837  86.3956  15.5070 0002187 108.5521 316.1744 14.34216383914792
IRIDIUM 10 [+]          
1 24839U 97030D   14342.23866205  .00000084  00000-0  22956-4 0  1184
2 24839  86.3957  15.4704 0002160 109.9548 294.4789 14.34210803914814
IRIDIUM 13 [+]          
1 24840U 97030E   14342.25809837  .00000370  00000-0  12511-3 0   481
2 24840  86.3958  15.5829 0002058 105.9428 300.5899 14.34214658914807
IRIDIUM 16 [-]          
1 24841U 97030F   14342.19075677  .00000360  00000-0  11637-3 0   580
2 24841  86.4037  16.0524 0003577  82.9332 277.2271 14.36292741915211
IRIDIUM 911 [-]         
1 24842U 97030G   14342.15304486  .00000434  00000-0  11994-3 0  7675
2 24842  86.4462  17.3812 0012504 269.4674 146.8450 14.44462345919828
IRIDIUM 15 [+]          
1 24869U 97034A   14342.25158135  .00000403  00000-0  13671-3 0  1851
2 24869  86.3969  47.1928 0002234 111.3610 309.3018 14.34217674911775
IRIDIUM 17 [-]          
1 24870U 97034B   14342.18700876  .00000362  00000-0  11921-3 0   635
2 24870  86.3971  46.4063 0001958  82.0724 329.8346 14.35396606911892
IRIDIUM 920 [-]         
1 24871U 97034C   14342.20142868  .00000348  00000-0  10587-3 0  6974
2 24871  86.3978  34.8056 0013834 129.3054 287.8077 14.39094639913734
IRIDIUM 18 [+]          
1 24872U 97034D   14342.20180371  .00000437  00000-0  14886-3 0   818
2 24872  86.3974  47.4266 0002353 110.9598 249.1850 14.34219656911761
IRIDIUM 921 [-]         
1 24873U 97034E   14341.89106186  .00009495  00000-0  64350-3 0  1517
2 24873  86.3873 140.8006 0007869 147.6933  14.3450 15.06318148948952
IRIDIUM 26 [-]          
1 24903U 97043A   14342.22832538  .00000443  00000-0  14915-3 0  2287
2 24903  86.3977 280.6818 0002313 101.7429  15.3258 14.34920289905747
IRIDIUM 25 [+]          
1 24904U 97043B   14342.28957268  .00000334  00000-0  11229-3 0  1296
2 24904  86.3968 280.7757 0002315  98.7477 261.3981 14.34214055905676
IRIDIUM 46 [+]          
1 24905U 97043C   14342.30226611  .00000477  00000-0  16340-3 0  1096
2 24905  86.3977 281.2395 0002194 101.4811 258.6631 14.34219450905697
IRIDIUM 23 [S]          
1 24906U 97043D   14342.32745096  .00000487  00000-0  16689-3 0  1392
2 24906  86.3983 280.6688 0002415 106.4799  56.5077 14.34233553905700
IRIDIUM 22 [+]          
1 24907U 97043E   14342.22372987  .00000428  00000-0  14568-3 0   890
2 24907  86.3977 281.3661 0002171  99.8140  18.6945 14.34218183905689
DUMMY MASS 1 [-]        
1 24925U 97048A   14340.98748810  .00000482  00000-0  53495-4 0  9980
2 24925  86.3364 108.9714 0009002  75.9230  61.8859 14.84780232934586
DUMMY MASS 2 [-]        
1 24926U 97048B   14341.96116170  .00000483  00000-0  53953-4 0  9843
2 24926  86.3364 109.4876 0009898  77.7352  61.0680 14.84552907934591
IRIDIUM 29 [-]          
1 24944U 97051A   14342.05217353  .00000286  00000-0  94821-4 0   147
2 24944  86.3962 312.5137 0002110 107.8798 252.2628 14.34388399902230
IRIDIUM 32 [+]          
1 24945U 97051B   14342.29935291  .00000460  00000-0  15722-3 0  1194
2 24945  86.3959 312.4499 0002226 105.1833 254.9609 14.34216888902282
IRIDIUM 33 [-]          
1 24946U 97051C   14342.05800922  .00000371  00000-0  12765-3 0  1893
2 24946  86.3875 312.5990 0007931  23.3098  21.2069 14.33253597901943
IRIDIUM 28 [-]          
1 24948U 97051E   14342.31260838  .00000475  00000-0  15923-3 0  9308
2 24948  86.3967 312.1483 0002526  97.7524  18.5086 14.35195336902334
IRIDIUM 30 [+]          
1 24949U 97051F   14342.29300723  .00000416  00000-0  14144-3 0  1552
2 24949  86.3960 312.5346 0002277 105.9256 254.2191 14.34216409902269
IRIDIUM 31 [+]          
1 24950U 97051G   14342.28666377  .00000355  00000-0  11979-3 0   726
2 24950  86.3958 312.5395 0001976 103.3418 256.7999 14.34215476902276
IRIDIUM 19 [+]          
1 24965U 97056A   14342.20128457  .00000227  00000-0  73940-4 0   445
2 24965  86.3955 344.0845 0002183 107.4322 252.7113 14.34224652900402
IRIDIUM 35 [+]          
1 24966U 97056B   14342.07443541  .00000221  00000-0  71985-4 0   985
2 24966  86.3954 344.1397 0002201 107.0365 253.1072 14.34223265900362
IRIDIUM 36 [-]          
1 24967U 97056C   14342.19761630  .00000376  00000-0  12467-3 0   352
2 24967  86.3966 343.8139 0002026 105.3792 317.1032 14.35240248900601
IRIDIUM 37 [+]          
1 24968U 97056D   14342.11884842  .00000220  00000-0  71475-4 0   696
2 24968  86.3958 344.2808 0002156 107.5490 252.5941 14.34217856900377
IRIDIUM 34 [+]          
1 24969U 97056E   14342.13785201  .00000213  00000-0  69107-4 0   543
2 24969  86.3957 344.2107 0002190 107.4924 252.6512 14.34225207900372
IRIDIUM 43 [+]          
1 25039U 97069A   14342.26521713  .00000416  00000-0  14148-3 0   534
2 25039  86.3979  47.3186 0001997 110.5136 249.6274 14.34223545894171
IRIDIUM 41 [+]          
1 25040U 97069B   14342.34180506  .00000377  00000-0  12740-3 0   606
2 25040  86.3971  47.2626 0002408 110.7725 317.2380 14.34218810894187
IRIDIUM 40 [+]          
1 25041U 97069C   14342.28425442  .00000395  00000-0  13399-3 0  1153
2 25041  86.3970  47.2280 0002238 111.5242 248.6193 14.34217079894193
IRIDIUM 39 [+]          
1 25042U 97069D   14342.29058256  .00000450  00000-0  15349-3 0   800
2 25042  86.3988  47.5168 0002000 113.1053 247.0354 14.34227238894174
IRIDIUM 38 [-]          
1 25043U 97069E   14342.27764957  .00000320  00000-0  10430-3 0   342
2 25043  86.3969  45.5177 0003045  91.7602 335.4209 14.35656975894449
IRIDIUM 42 [-]          
1 25077U 97077A   14342.27550963  .00000199  00000-0  63799-4 0   675
2 25077  86.3972  47.3457 0002248 105.7481 254.3963 14.34289487890032
IRIDIUM 44 [-]          
1 25078U 97077B   14342.20763249  .00000356  00000-0  11175-3 0  5672
2 25078  86.3968  39.1854 0003483  85.8171 330.3430 14.37700260891141
IRIDIUM 45 [+]          
1 25104U 97082A   14342.28020775  .00000818  00000-0  28523-3 0    62
2 25104  87.0263 298.6897 0002633  99.9491 260.2003 14.34213716888238
IRIDIUM 24 [-]          
1 25105U 97082B   14342.18683468  .00000440  00000-0  13473-3 0  5914
2 25105  86.3942 264.6379 0013477 134.3363 341.9095 14.39434151890204
IRIDIUM 47 [+]          
1 25106U 97082C   14342.34175355  .00000469  00000-0  16050-3 0  9979
2 25106  86.3965 280.6556 0002278 103.6199  67.5144 14.34218334888232
IRIDIUM 49 [+]          
1 25108U 97082E   14342.34331919  .00000461  00000-0  15752-3 0   253
2 25108  86.3968 280.7333 0002249 101.1048  12.6866 14.34216576888244
IRIDIUM 52 [+]          
1 25169U 98010A   14342.30548295  .00000021  00000-0  60546-6 0  7977
2 25169  86.3960  15.7081 0002172 109.2762  18.2745 14.34210811879644
IRIDIUM 56 [+]          
1 25170U 98010B   14342.21303310  .00000075  00000-0  19840-4 0  7750
2 25170  86.3962  15.8462 0002298 111.3340 291.8044 14.34224876879611
IRIDIUM 54 [+]          
1 25171U 98010C   14342.23642952  .00000006  00000-0 -50574-5 0   254
2 25171  86.3964  15.7534 0002297 110.9376 249.2066 14.34217807879781
IRIDIUM 50 [+]          
1 25172U 98010D   14342.29276309  .00000314  00000-0  10510-3 0   952
2 25172  86.3960  15.6907 0002163 109.3428  17.8399 14.34218317879621
IRIDIUM 53 [+]          
1 25173U 98010E   14342.22574319  .00000126  00000-0  37987-4 0   643
2 25173  86.3959  15.7249 0002137 109.1104 294.1551 14.34213090879623
IRIDIUM 51 [S]          
1 25262U 98018A   14342.30285660  .00000224  00000-0  73080-4 0  1764
2 25262  86.3945 344.3137 0002206 112.2098 247.9332 14.34220360879023
IRIDIUM 61 [+]          
1 25263U 98018B   14342.12518056  .00000224  00000-0  72814-4 0  9754
2 25263  86.3957 344.2458 0002209 107.8450 252.2986 14.34223171874704
IRIDIUM 55 [+]          
1 25272U 98019A   14342.19787580  .00000389  00000-0  13194-3 0  9771
2 25272  86.3957 312.4069 0002230 104.2216 255.9228 14.34217057873911
IRIDIUM 57 [+]          
1 25273U 98019B   14342.31202967  .00000428  00000-0  14586-3 0    60
2 25273  86.3964 312.6254 0002222 104.3597 255.7846 14.34215250873931
IRIDIUM 58 [+]          
1 25274U 98019C   14342.31838281  .00000388  00000-0  13131-3 0  8625
2 25274  86.3965 312.7937 0002300 105.9938 254.1511 14.34216856873930
IRIDIUM 59 [+]          
1 25275U 98019D   14342.32469822  .00000338  00000-0  11372-3 0  6198
2 25275  86.3952 312.6935 0001856 102.4266 257.7138 14.34218688873934
IRIDIUM 60 [+]          
1 25276U 98019E   14342.05199583  .00000061  00000-0  14870-4 0   748
2 25276  86.3955 312.4636 0002210 104.8939 255.2502 14.34215585873898
IRIDIUM 62 [+]          
1 25285U 98021A   14342.29247345  .00000441  00000-0  15039-3 0   432
2 25285  86.3976 249.2273 0002169 101.8960 258.2479 14.34214554872888
IRIDIUM 63 [+]          
1 25286U 98021B   14342.31869937  .00000282  00000-0  93415-4 0   868
2 25286  86.4005 249.5237 0001948 105.5618  14.3692 14.34325479872888
